STARLINK-30569
1 58068U 23158T   26061.16668981  .00016951  00000+0  11425-2 0  9992
2 58068  43.0004  70.9352 0002037 260.1157  72.3898 15.06411109  5819
